{"fetched_at":"2026-07-10T07:59:22.655Z","source":"https://celestrak.org/NORAD/elements/gp.php?NAME=SPOT&FORMAT=JSON","constellation":"spot","records":[{"OBJECT_NAME":"SPOT 6","OBJECT_ID":"2012-047A","EPOCH":"2026-07-09T20:04:39.972000","CLASSIFICATION_TYPE":"U","MEAN_MOTION":14.58536886,"ECCENTRICITY":0.0001147,"INCLINATION":98.2108,"RA_OF_ASC_NODE":257.8795,"ARG_OF_PERICENTER":81.799,"MEAN_ANOMALY":278.3339,"EPHEMERIS_TYPE":0,"NORAD_CAT_ID":38755,"ELEMENT_SET_NO":999,"REV_AT_EPOCH":73635,"BSTAR":0.000026856,"MEAN_MOTION_DOT":7.9e-7,"MEAN_MOTION_DDOT":0},{"OBJECT_NAME":"SPOT 7","OBJECT_ID":"2014-034A","EPOCH":"2026-07-09T20:25:52.015008","CLASSIFICATION_TYPE":"U","MEAN_MOTION":14.60977461,"ECCENTRICITY":0.0001542,"INCLINATION":98.0617,"RA_OF_ASC_NODE":252.7581,"ARG_OF_PERICENTER":97.0727,"MEAN_ANOMALY":263.0649,"EPHEMERIS_TYPE":0,"NORAD_CAT_ID":40053,"ELEMENT_SET_NO":999,"REV_AT_EPOCH":64044,"BSTAR":0.000017546,"MEAN_MOTION_DOT":4.1e-7,"MEAN_MOTION_DDOT":0}]}
